[{"OBJECT_NAME":"ASRTU-1 (AO-123)","OBJECT_ID":"2024-199AY","EPOCH":"2026-03-09T22:36:42.151392","MEAN_MOTION":15.34070057,"ECCENTRICITY":0.0012786,"INCLINATION":97.3152,"RA_OF_ASC_NODE":298.5256,"ARG_OF_PERICENTER":309.3392,"MEAN_ANOMALY":50.6717,"EPHEMERIS_TYPE":0,"CLASSIFICATION_TYPE":"U","NORAD_CAT_ID":61781,"ELEMENT_SET_NO":999,"REV_AT_EPOCH":11870,"BSTAR":0.00032267684,"MEAN_MOTION_DOT":0.00010589,"MEAN_MOTION_DDOT":0},{"OBJECT_NAME":"STARLINK-35031","OBJECT_ID":"2025-192A","EPOCH":"2026-03-09T17:39:49.785696","MEAN_MOTION":15.30195571,"ECCENTRICITY":8.13e-5,"INCLINATION":53.16,"RA_OF_ASC_NODE":242.6371,"ARG_OF_PERICENTER":46.8896,"MEAN_ANOMALY":313.2172,"EPHEMERIS_TYPE":0,"CLASSIFICATION_TYPE":"U","NORAD_CAT_ID":65404,"ELEMENT_SET_NO":999,"REV_AT_EPOCH":2924,"BSTAR":0.0010727259,"MEAN_MOTION_DOT":0.00031542,"MEAN_MOTION_DDOT":0}]
